{"type":"FeatureCollection","crs":{"type":"name","properties":{"name":"EPSG:6706"}},"features":[{"type":"Feature","id":"AC_PED:0","properties":{"FID":0},"geometry":{"type":"Polygon","coordinates":[[[11.87252983230924,45.406619515622566,16.0],[11.872528164342068,45.40662693864595,16.0],[11.87248041299495,45.40684183065923,16.0],[11.872486028711855,45.40685177069396,16.0],[11.872486949435656,45.40685228759039,16.0],[11.872491416310579,45.40685469548982,16.0],[11.87266722628113,45.40686683167701,16.0],[11.872578333407214,45.40675943431962,16.0],[11.87252983230924,45.406619515622566,16.0]]]}},{"type":"Feature","id":"AC_PED:41","properties":{"FID":41},"geometry":{"type":"Polygon","coordinates":[[[11.87429072195713,45.40810232463339,16.0],[11.874301453568211,45.408061998704035,17.0],[11.874302437896178,45.40805873345562,16.0],[11.874359299743743,45.40806117158886,16.0],[11.874373730687969,45.40806350843136,17.0],[11.874387578108376,45.4080644197708,17.0],[11.87438776946283,45.40806315477435,16.0],[11.874395328125093,45.4080157077618,16.0],[11.874299732342285,45.40801802591721,17.0],[11.87429705221448,45.408018093431565,16.0],[11.874266221535816,45.40801742987298,16.0],[11.874235390857464,45.408016766306055,17.0],[11.874177818069871,45.40801542617013,17.0],[11.874159439870485,45.40808636895001,17.0],[11.874225017092822,45.40809434841827,17.0],[11.87429072195713,45.40810232463339,16.0],[11.87429072195713,45.40810232463339,16.0]]]}},{"type":"Feature","id":"AC_PED:51","properties":{"FID":51},"geometry":{"type":"Polygon","coordinates":[[[11.877902427256837,45.406071335060965,11.0],[11.877796966342515,45.40610324907681,11.0],[11.877804017136073,45.40610118098108,15.0],[11.877902427256837,45.406071335060965,11.0],[11.877902427256837,45.406071335060965,11.0]]]}},{"type":"Feature","id":"AC_PED:53","properties":{"FID":53},"geometry":{"type":"Polygon","coordinates":[[[11.877796966342515,45.40610324907681,11.0],[11.8777899201175,45.40610540706943,16.0],[11.877787782553426,45.40610609106984,13.5],[11.877796966342515,45.40610324907681,11.0]]]}},{"type":"Feature","id":"AC_PED:59","properties":{"FID":59},"geometry":{"type":"Polygon","coordinates":[[[11.877773282016069,45.40612751973821,11.0],[11.87780462088541,45.406118088120664,11.0],[11.877797570089806,45.406120156216446,15.0],[11.87778032824447,45.40612536174652,15.0],[11.877773282016069,45.40612751973821,11.0],[11.877773282016069,45.40612751973821,11.0]]]}},{"type":"Feature","id":"AC_PED:61","properties":{"FID":61},"geometry":{"type":"Polygon","coordinates":[[[11.87780462088541,45.406118088120664,11.0],[11.877909461997346,45.40608654978108,11.0],[11.87781166711137,45.40611593012708,15.0],[11.87780462088541,45.406118088120664,11.0],[11.87780462088541,45.406118088120664,11.0]]]}},{"type":"Feature","id":"AC_PED:63","properties":{"FID":63},"geometry":{"type":"Polygon","coordinates":[[[11.877980443770463,45.40606513668228,11.0],[11.877964594395925,45.406052484624865,16.0],[11.877902427256837,45.406071335060965,11.0],[11.877804017136073,45.40610118098108,11.0],[11.877796966342515,45.40610324907681,11.0],[11.8777899201175,45.40610540706943,11.0],[11.877787782553426,45.40610609106984,11.0],[11.87776450174087,45.406113159147495,11.0],[11.877740715009384,45.406120329992696,11.0],[11.877719950043044,45.40612661450848,16.0],[11.87772810134469,45.40614117099103,16.0],[11.877750502536923,45.40613439514354,11.0],[11.877766108166607,45.40612968094822,11.0],[11.877773282016069,45.40612751973821,11.0],[11.87778032824447,45.40612536174652,11.0],[11.877797570089806,45.406120156216446,11.0],[11.87780462088541,45.406118088120664,11.0],[11.87781166711137,45.40611593012708,11.0],[11.877909461997346,45.40608654978108,11.0],[11.877951370142723,45.40607388112444,15.0],[11.877980443770463,45.40606513668228,11.0],[11.877980443770463,45.40606513668228,11.0]]]}},{"type":"Feature","id":"AC_PED:65","properties":{"FID":65},"geometry":{"type":"Polygon","coordinates":[[[11.877750502536923,45.40613439514354,11.0],[11.877773282016069,45.40612751973821,11.0],[11.877766108166607,45.40612968094822,16.0],[11.877750502536923,45.40613439514354,11.0],[11.877750502536923,45.40613439514354,11.0]]]}},{"type":"Feature","id":"AC_PED:99","properties":{"FID":99},"geometry":{"type":"Polygon","coordinates":[[[11.872716931869773,45.40664009873597,16.0],[11.8727087362362,45.40662716323846,16.0],[11.872706461842403,45.406627670563246,16.0],[11.872703640293397,45.40662243085813,16.0],[11.872578333407214,45.40675943431962,16.0],[11.872729521847276,45.406666605509635,16.0],[11.872725259690583,45.40665312091738,16.0],[11.872716931869773,45.40664009873597,16.0]]]}},{"type":"Feature","id":"AC_PED:101","properties":{"FID":101},"geometry":{"type":"Polygon","coordinates":[[[11.872703640293397,45.40662243085813,16.0],[11.872669316782725,45.40655794586954,16.0],[11.872551480178416,45.406547500637984,16.0],[11.872545112841259,45.40655045132818,16.0],[11.87252983230924,45.406619515622566,16.0],[11.872578333407214,45.40675943431962,16.0],[11.872703640293397,45.40662243085813,16.0]]]}},{"type":"Feature","id":"AC_PED:105","properties":{"FID":105},"geometry":{"type":"Polygon","coordinates":[[[11.87266722628113,45.40686683167701,16.0],[11.8727977665441,45.40687578677845,16.0],[11.87278811645968,45.40685181635892,16.0],[11.872729521847276,45.406666605509635,16.0],[11.872578333407214,45.40675943431962,16.0],[11.87266722628113,45.40686683167701,16.0]]]}},{"type":"Feature","id":"AC_PED:115","properties":{"FID":115},"geometry":{"type":"Polygon","coordinates":[[[11.874301228478783,45.407964430750084,17.0],[11.874303358012897,45.40790820926228,17.0],[11.874268694405881,45.40791259295001,17.0],[11.874258242855333,45.407913126266614,17.0],[11.874242180372466,45.40791389093564,17.0],[11.874226117889053,45.40791465560242,17.0],[11.874224837076245,45.40791459785363,17.0],[11.874224326576606,45.40791461071316,17.0],[11.87420202856841,45.40791337214802,17.0],[11.87419327973921,45.407954998311496,17.0],[11.87423409723997,45.407958560760555,17.0],[11.874267726670384,45.40796149415283,17.0],[11.874301228478783,45.407964430750084,17.0]]]}},{"type":"Feature","id":"AC_PED:117","properties":{"FID":117},"geometry":{"type":"Polygon","coordinates":[[[11.873344417433573,45.407580502532106,17.0],[11.873311422177036,45.40758502394095,17.0],[11.873310911679953,45.40758503679632,17.0],[11.872974313207076,45.40763023767072,17.0],[11.872973565707383,45.40763061654239,17.0],[11.872971943083558,45.407631377499165,17.0],[11.872970448084105,45.40763213524245,17.0],[11.87296914467543,45.40763666868971,17.0],[11.872996607589844,45.407767395551645,17.0],[11.87347093531586,45.40769397273884,17.0],[11.873344417433573,45.407580502532106,17.0]]]}},{"type":"Feature","id":"AC_PED:119","properties":{"FID":119},"geometry":{"type":"Polygon","coordinates":[[[11.873783059241442,45.407521568966786,17.0],[11.87364852143672,45.407539629433,17.0],[11.873479844256037,45.40756233002385,17.0],[11.873344417433573,45.407580502532106,17.0],[11.87347093531586,45.40769397273884,17.0],[11.873783059241442,45.407521568966786,17.0]]]}},{"type":"Feature","id":"AC_PED:121","properties":{"FID":121},"geometry":{"type":"Polygon","coordinates":[[[11.873762916465768,45.40775412869799,17.0],[11.874029476773702,45.407716270442364,17.0],[11.874036199800907,45.40771529098698,17.0],[11.87401852381299,45.40763895549157,17.0],[11.874018519249642,45.407638865593924,17.0],[11.87347093531586,45.40769397273884,17.0],[11.873762916465768,45.40775412869799,17.0]]]}},{"type":"Feature","id":"AC_PED:123","properties":{"FID":123},"geometry":{"type":"Polygon","coordinates":[[[11.872996607589844,45.407767395551645,17.0],[11.873015157912526,45.407855950898714,17.0],[11.873018079705579,45.40785812764377,17.0],[11.873018872825883,45.407858647748824,17.0],[11.873019538321287,45.407859171067415,17.0],[11.873025030754619,45.40785912278313,17.0],[11.873062711822945,45.407853763368735,17.0],[11.873251878235694,45.40782685693224,17.0],[11.873263801973838,45.40782511647243,17.0],[11.87347093531586,45.40769397273884,17.0],[11.872996607589844,45.407767395551645,17.0]]]}},{"type":"Feature","id":"AC_PED:125","properties":{"FID":125},"geometry":{"type":"Polygon","coordinates":[[[11.874018519249642,45.407638865593924,17.0],[11.8739854698168,45.407496308017116,17.0],[11.873978263550582,45.40749531936468,17.0],[11.873813392563711,45.40751747451638,17.0],[11.873783059241442,45.407521568966786,17.0],[11.87347093531586,45.40769397273884,17.0],[11.874018519249642,45.407638865593924,17.0]]]}},{"type":"Feature","id":"AC_PED:127","properties":{"FID":127},"geometry":{"type":"Polygon","coordinates":[[[11.873263801973838,45.40782511647243,17.0],[11.87347885306207,45.407794587422615,17.0],[11.87375416512367,45.40775542926001,17.0],[11.873762916465768,45.40775412869799,17.0],[11.87347093531586,45.40769397273884,17.0],[11.873263801973838,45.40782511647243,17.0]]]}},{"type":"Feature","id":"AC_PED:129","properties":{"FID":129},"geometry":{"type":"Polygon","coordinates":[[[11.874299732342285,45.40801802591721,17.0],[11.874266221535816,45.40801742987298,17.0],[11.87429705221448,45.408018093431565,17.0],[11.874299732342285,45.40801802591721,17.0]]]}},{"type":"Feature","id":"AC_PED:131","properties":{"FID":131},"geometry":{"type":"Polygon","coordinates":[[[11.874919239671708,45.40613033675907,15.0],[11.874954638409488,45.406097670396235,15.0],[11.874955590531327,45.40609125551213,15.0],[11.874869137253842,45.40610243505783,16.0],[11.874846789743508,45.40610020772725,16.0],[11.874777386618595,45.406162804866504,16.0],[11.874782979657509,45.406169774944786,15.0],[11.874784164760454,45.40617046518687,15.0],[11.87478547748436,45.40617115221352,15.0],[11.874794425003723,45.40617623752324,15.0],[11.87490825589449,45.406140514892684,15.0],[11.874919239671708,45.40613033675907,15.0]]]}},{"type":"Feature","id":"AC_PED:133","properties":{"FID":133},"geometry":{"type":"Polygon","coordinates":[[[11.874846789743508,45.40610020772725,16.0],[11.874746232812488,45.406090319531266,15.0],[11.874747515547126,45.406118101103836,15.0],[11.874751171801298,45.40612971062249,15.0],[11.874777386618595,45.406162804866504,15.0],[11.874846789743508,45.40610020772725,16.0]]]}},{"type":"Feature","id":"AC_PED:135","properties":{"FID":135},"geometry":{"type":"Polygon","coordinates":[[[11.872127469505475,45.408665638866964,15.0],[11.872121120087424,45.40866642878015,15.0],[11.872143767366182,45.408762712224274,15.0],[11.87216641472968,45.408858995660516,15.0],[11.872348082564923,45.408840380612055,15.0],[11.872420250736129,45.408824611909615,15.0],[11.87240015093874,45.4087281743783,16.0],[11.872371412150406,45.40873096813557,16.0],[11.872364441820027,45.40869936917135,16.0],[11.872402565688823,45.40869516899214,16.0],[11.872415396709584,45.40869367581896,16.0],[11.872414699202087,45.40869000286317,16.0],[11.87240456483056,45.40863634046332,15.0],[11.872339835346072,45.40864004024036,16.0],[11.87212424201304,45.40865239824927,15.0],[11.872127469505475,45.408665638866964,15.0]]]}},{"type":"Feature","id":"AC_PED:139","properties":{"FID":139},"geometry":{"type":"Polygon","coordinates":[[[11.87240456483056,45.40863634046332,16.0],[11.872454516889286,45.40863103238899,15.0],[11.872453513955518,45.40862637698421,15.0],[11.87254033634281,45.408617350283706,16.0],[11.872645714646909,45.4086063261372,16.0],[11.872643457786193,45.40858955060738,16.0],[11.872707293612313,45.4085808324538,16.0],[11.872699789991056,45.4085538375767,16.0],[11.87287897679257,45.40852916329108,16.0],[11.87292631230966,45.408522660713935,16.0],[11.873020600429339,45.40850966514221,16.0],[11.8730101424858,45.408469782864564,16.0],[11.872641686551084,45.40851434469834,16.0],[11.872621735864916,45.40851655721738,16.0],[11.872630138198092,45.40856630265197,16.0],[11.872583677745919,45.408572423025454,16.0],[11.872396185803408,45.408597125895575,16.0],[11.872192065794154,45.408624047275175,16.0],[11.872119710757008,45.40863360967048,15.0],[11.87212424201304,45.40865239824927,15.0],[11.872339835346072,45.40864004024036,16.0],[11.87240456483056,45.40863634046332,16.0]]]}},{"type":"Feature","id":"AC_PED:141","properties":{"FID":141},"geometry":{"type":"Polygon","coordinates":[[[11.872348082564923,45.408840380612055,15.0],[11.872417871672972,45.40883313298123,15.0],[11.872420250736129,45.408824611909615,15.0],[11.872348082564923,45.408840380612055,15.0]]]}},{"type":"Feature","id":"AC_PED:143","properties":{"FID":143},"geometry":{"type":"Polygon","coordinates":[[[11.87425823829156,45.40791303636901,17.0],[11.874242180372466,45.40791389093564,17.0],[11.874258242855333,45.407913126266614,17.0],[11.87425823829156,45.40791303636901,17.0]]]}},{"type":"Feature","id":"AC_PED:145","properties":{"FID":145},"geometry":{"type":"Polygon","coordinates":[[[11.874242180372466,45.40791389093564,17.0],[11.874224837076245,45.40791459785363,17.0],[11.874226117889053,45.40791465560242,17.0],[11.874242180372466,45.40791389093564,17.0]]]}},{"type":"Feature","id":"AC_PED:146","properties":{"FID":146},"geometry":{"type":"Polygon","coordinates":[[[11.874710293263599,45.406922761282146,17.0],[11.874696651513382,45.406925895366236,16.0],[11.874718463805904,45.40708871865374,16.0],[11.874738610161968,45.40709037137829,17.0],[11.874734627427301,45.4070396146141,17.0],[11.874734495060109,45.407037007584215,17.0],[11.874836935882959,45.40704369788339,17.0],[11.87475890722461,45.406969153130554,17.0],[11.87475625489532,45.40697480073535,17.0],[11.87474557512399,45.40696831886537,17.0],[11.874739425871342,45.40696046267377,16.0],[11.87473799848009,45.40694996716434,16.0],[11.87473836309063,45.4069495979278,16.0],[11.874710293263599,45.406922761282146,17.0]]]}},{"type":"Feature","id":"AC_PED:148","properties":{"FID":148},"geometry":{"type":"Polygon","coordinates":[[[11.875240961894534,45.40679894476307,16.0],[11.875233259107357,45.406800759091794,16.0],[11.875243000846531,45.407045437843536,17.0],[11.875295700357743,45.407048970534966,17.0],[11.875240961894534,45.40679894476307,16.0]]]}},{"type":"Feature","id":"AC_PED:150","properties":{"FID":150},"geometry":{"type":"Polygon","coordinates":[[[11.875233259107357,45.406800759091794,16.0],[11.87514561592543,45.40682124012662,16.0],[11.874710293263599,45.406922761282146,16.0],[11.87473836309063,45.4069495979278,17.0],[11.874743253291731,45.40694272377755,16.0],[11.874753549287016,45.40693661355552,16.0],[11.874762286783781,45.4069350432277,16.0],[11.874770983381504,45.406935184168695,16.0],[11.874767027985191,45.406947885585694,16.0],[11.874759976967935,45.40694995349889,16.0],[11.87475796713666,45.406953154576456,16.0],[11.87475839126522,45.406956474356136,16.0],[11.874760670397,45.40695857723588,16.0],[11.874763063458403,45.40696040720738,16.0],[11.87475890722461,45.406969153130554,16.0],[11.874836935882959,45.40704369788339,17.0],[11.874838205702124,45.407018372354734,17.0],[11.875243000846531,45.407045437843536,17.0],[11.875233259107357,45.406800759091794,16.0]]]}},{"type":"Feature","id":"AC_PED:152","properties":{"FID":152},"geometry":{"type":"Polygon","coordinates":[[[11.875580558655507,45.406719816894324,16.0],[11.875240961894534,45.40679894476307,16.0],[11.875295700357743,45.407048970534966,17.0],[11.875615101806584,45.407070355451665,17.0],[11.875580558655507,45.406719816894324,16.0]]]}},{"type":"Feature","id":"AC_PED:154","properties":{"FID":154},"geometry":{"type":"Polygon","coordinates":[[[11.875768309579941,45.40697711167168,17.0],[11.875760645402607,45.4069520113013,16.0],[11.875962032626948,45.40693433368768,16.0],[11.87588519198227,45.406656781385976,16.0],[11.875822274839248,45.406663407877915,17.0],[11.875594701659542,45.406716490046534,16.0],[11.875580558655507,45.406719816894324,16.0],[11.875615101806584,45.407070355451665,17.0],[11.875619714492576,45.40707059925169,17.0],[11.875617501438619,45.407094958422164,17.0],[11.875768309579941,45.40697711167168,17.0]],[[11.875781959681769,45.4067628077319,17.0],[11.87578825426103,45.40676345919801,17.0],[11.875794325558257,45.40676474637943,17.0],[11.875800045951495,45.40676667249273,17.0],[11.875805410874866,45.40676914764052,17.0],[11.875810165084157,45.40677217825597,17.0],[11.875814299447313,45.406775584544164,17.0],[11.87581768634213,45.4067793697218,17.0],[11.87582019814634,45.40678353700549,17.0],[11.87582195334988,45.406787903383744,17.0],[11.875822687576036,45.406792295494796,17.0],[11.875822533012862,45.40679680001956,17.0],[11.875821480528009,45.40680123716303,17.0],[11.875819525555208,45.406805517027706,17.0],[11.875816791150443,45.40680954649946,17.0],[11.875813145125273,45.40681323889729,17.0],[11.875808842724101,45.40681658778797,17.0],[11.875803874814794,45.406819413376425,16.0],[11.875798369019668,45.40682171244598,16.0],[11.875792580583358,45.40682347856341,16.0],[11.875786377317697,45.40682462504775,16.0],[11.87578000990143,45.40682505556829,16.0],[11.875776304289097,45.40682505895089,16.0],[11.875769886646774,45.40682450059835,16.0],[11.875763819909556,45.40682330331329,16.0],[11.875757981021316,45.40682156020984,16.0],[11.875752493038517,45.40681917817396,16.0],[11.875747620337764,45.40681633056767,16.0],[11.875743358353139,45.40681292749357,16.0],[11.875739848404743,45.40680923542769,17.0],[11.875737085926557,45.40680516447264,17.0],[11.875735207672582,45.40680089120694,16.0],[11.87573434126487,45.40679641241417,16.0],[11.875734240590615,45.40679191432236,17.0],[11.87573503783778,45.406787483612526,17.0],[11.875736860628347,45.406783117068144,17.0],[11.875739467415514,45.4067790908147,17.0],[11.875742849067274,45.406775225057146,17.0],[11.875747023847275,45.406771879385424,17.0],[11.87575185500142,45.40676887722099,17.0],[11.875757228605401,45.406766491472766,17.0],[11.875763140093357,45.40676463224318,17.0],[11.875769211164917,45.406763399079296,17.0],[11.875775569442423,45.40676278876451,17.0],[11.875781959681769,45.4067628077319,17.0]]]}},{"type":"Feature","id":"AC_PED:156","properties":{"FID":156},"geometry":{"type":"Polygon","coordinates":[[[11.87588519198227,45.406656781385976,17.0],[11.875883149341599,45.406649271812924,16.0],[11.875822274839248,45.406663407877915,16.0],[11.87588519198227,45.406656781385976,17.0]]]}},{"type":"Feature","id":"AC_PED:158","properties":{"FID":158},"geometry":{"type":"Polygon","coordinates":[[[11.875720453704748,45.40746897636352,17.0],[11.875717903700453,45.40749676450471,17.0],[11.87543916657504,45.40747849569248,17.0],[11.875442131249859,45.407718034450205,16.0],[11.875785176470481,45.407711729260406,16.0],[11.87577868114368,45.40755869156826,17.0],[11.875778064262704,45.40754151471438,17.0],[11.87577699099837,45.40751786845768,17.0],[11.875720453704748,45.40746897636352,17.0]]]}},{"type":"Feature","id":"AC_PED:160","properties":{"FID":160},"geometry":{"type":"Polygon","coordinates":[[[11.87577699099837,45.40751786845768,17.0],[11.87577686314724,45.40751535132793,17.0],[11.875789461378085,45.407514313704624,17.0],[11.87577700242402,45.40749293468665,17.0],[11.875772525778123,45.40748530643318,17.0],[11.875720453704748,45.40746897636352,17.0],[11.87577699099837,45.40751786845768,17.0]]]}},{"type":"Feature","id":"AC_PED:162","properties":{"FID":162},"geometry":{"type":"Polygon","coordinates":[[[11.87543916657504,45.40747849569248,17.0],[11.875335316493029,45.40747175143572,16.0],[11.87529518541106,45.40772074736396,16.0],[11.875442131249859,45.407718034450205,16.0],[11.87543916657504,45.40747849569248,17.0]]]}},{"type":"Feature","id":"AC_PED:164","properties":{"FID":164},"geometry":{"type":"Polygon","coordinates":[[[11.87528185084345,45.40746823806905,16.0],[11.87506670749631,45.40745412661051,16.0],[11.87506909417126,45.407725094330566,16.0],[11.875212202184999,45.40772229839166,16.0],[11.875286119516515,45.407720885806775,16.0],[11.87528185084345,45.40746823806905,16.0]]]}},{"type":"Feature","id":"AC_PED:166","properties":{"FID":166},"geometry":{"type":"Polygon","coordinates":[[[11.87506670749631,45.40745412661051,16.0],[11.874844895847774,45.4074395526692,16.0],[11.874853349582347,45.40772936018417,16.0],[11.87506909417126,45.407725094330566,16.0],[11.87506670749631,45.40745412661051,16.0]]]}},{"type":"Feature","id":"AC_PED:168","properties":{"FID":168},"geometry":{"type":"Polygon","coordinates":[[[11.875335316493029,45.40747175143572,16.0],[11.87528185084345,45.40746823806905,16.0],[11.875286119516515,45.407720885806775,16.0],[11.87529518541106,45.40772074736396,16.0],[11.875335316493029,45.40747175143572,16.0]]]}},{"type":"Feature","id":"AC_PED:170","properties":{"FID":170},"geometry":{"type":"Polygon","coordinates":[[[11.875772525778123,45.40748530643318,17.0],[11.875764543479677,45.407471555666994,17.0],[11.875720453704748,45.40746897636352,17.0],[11.875772525778123,45.40748530643318,17.0]]]}},{"type":"Feature","id":"AC_PED:172","properties":{"FID":172},"geometry":{"type":"Polygon","coordinates":[[[11.875847561609154,45.40849965712829,16.0],[11.875840496593415,45.408549252093536,16.0],[11.875936932675023,45.40855591272192,16.0],[11.875947315409821,45.408501193423554,16.0],[11.875897440792583,45.40850047023558,16.0],[11.875847561609154,45.40849965712829,16.0]]]}},{"type":"Feature","id":"AC_PED:174","properties":{"FID":174},"geometry":{"type":"Polygon","coordinates":[[[11.875845648449147,45.40841419341345,16.0],[11.875847561609154,45.40849965712829,16.0],[11.875897440792583,45.40850047023558,16.0],[11.875947315409821,45.408501193423554,16.0],[11.875965487687548,45.40839605077565,16.0],[11.875905504265758,45.40840512371843,16.0],[11.875845648449147,45.40841419341345,16.0]]]}},{"type":"Feature","id":"AC_PED:176","properties":{"FID":176},"geometry":{"type":"Polygon","coordinates":[[[11.875897186803186,45.40836716803132,16.0],[11.875655424982199,45.40840017507825,16.0],[11.875656693899803,45.40842012588726,16.0],[11.875657967384718,45.408440166593664,16.0],[11.875693752420387,45.40843521414488,16.0],[11.875845648449147,45.40841419341345,16.0],[11.875904540509028,45.40838363500705,16.0],[11.875897186803186,45.40836716803132,16.0]]]}},{"type":"Feature","id":"AC_PED:190","properties":{"FID":190},"geometry":{"type":"Polygon","coordinates":[[[11.875281187286161,45.4073796824162,17.0],[11.875283728113024,45.40740455187245,17.0],[11.875277346930767,45.407404712674044,17.0],[11.875281351992884,45.4074433171565,17.0],[11.875310318220533,45.40744501756227,17.0],[11.875339284449558,45.40744671796062,17.0],[11.875334777569156,45.40740326544685,17.0],[11.875328387256559,45.40740324645625,17.0],[11.875326443853714,45.40738259253712,17.0],[11.875299497876439,45.40733763518966,17.0],[11.875281187286161,45.4073796824162,17.0]]]}},{"type":"Feature","id":"AC_PED:192","properties":{"FID":192},"geometry":{"type":"Polygon","coordinates":[[[11.875921871683024,45.40864180426784,16.0],[11.875936932675023,45.40855591272192,16.0],[11.875888716915112,45.408552627366724,16.0],[11.875840496593415,45.408549252093536,16.0],[11.875831822656055,45.40859987774775,16.0],[11.875867834911924,45.40868493207816,16.0],[11.875921871683024,45.40864180426784,16.0]]]}},{"type":"Feature","id":"AC_PED:194","properties":{"FID":194},"geometry":{"type":"Polygon","coordinates":[[[11.875273656127785,45.40730687199692,17.0],[11.874743518305062,45.40727009285088,17.0],[11.87474876271005,45.4073079460274,17.0],[11.874750139906567,45.4073174526625,17.0],[11.874753988865411,45.40734543961297,17.0],[11.874800015694815,45.407348420549035,17.0],[11.875281187286161,45.4073796824162,17.0],[11.875299497876439,45.40733763518966,17.0],[11.875273656127785,45.40730687199692,17.0]]]}},{"type":"Feature","id":"AC_PED:196","properties":{"FID":196},"geometry":{"type":"Polygon","coordinates":[[[11.875326443853714,45.40738259253712,17.0],[11.875727226063194,45.40740858726551,17.0],[11.87579088831907,45.407416614096725,17.0],[11.87583677299915,45.40740924675051,17.0],[11.875882657666446,45.40740187938615,17.0],[11.875867592771801,45.4073442909914,17.0],[11.875860917516821,45.40731853561566,17.0],[11.875857166399614,45.40726984334382,17.0],[11.87581029281094,45.407277865710846,17.0],[11.875776846826724,45.4072835693574,17.0],[11.875763296150845,45.407285981173,17.0],[11.875774559161185,45.40733916477472,17.0],[11.87531875305592,45.40730915605569,17.0],[11.875299497876439,45.40733763518966,17.0],[11.875326443853714,45.40738259253712,17.0]]]}},{"type":"Feature","id":"AC_PED:198","properties":{"FID":198},"geometry":{"type":"Polygon","coordinates":[[[11.875831848334649,45.4071864997329,17.0],[11.875768309579941,45.40697711167168,16.0],[11.875617501438619,45.407094958422164,17.0],[11.87572507474381,45.40710205864778,16.0],[11.875735863709227,45.40715597430273,17.0],[11.875831848334649,45.4071864997329,17.0]]]}},{"type":"Feature","id":"AC_PED:200","properties":{"FID":200},"geometry":{"type":"Polygon","coordinates":[[[11.875831848334649,45.4071864997329,17.0],[11.875735863709227,45.40715597430273,17.0],[11.875740601483676,45.40717880810235,17.0],[11.875744609601329,45.407197339687805,17.0],[11.875745471451527,45.40720172858255,17.0],[11.875831848334649,45.4071864997329,17.0]]]}},{"type":"Feature","id":"AC_PED:202","properties":{"FID":202},"geometry":{"type":"Polygon","coordinates":[[[11.875735863709227,45.40715597430273,17.0],[11.87561367278795,45.40714789229668,17.0],[11.875354550467607,45.4071308391762,17.0],[11.875299931967172,45.40712726485708,17.0],[11.875280307048588,45.40714846228687,17.0],[11.875304411602233,45.4071726983371,17.0],[11.875745471451527,45.40720172858255,17.0],[11.875744609601329,45.407197339687805,17.0],[11.875740601483676,45.40717880810235,17.0],[11.875735863709227,45.40715597430273,17.0]]]}},{"type":"Feature","id":"AC_PED:204","properties":{"FID":204},"geometry":{"type":"Polygon","coordinates":[[[11.875260691246044,45.407169839508676,17.0],[11.875273656127785,45.40730687199692,17.0],[11.875299497876439,45.40733763518966,17.0],[11.87531875305592,45.40730915605569,17.0],[11.875304411602233,45.4071726983371,17.0],[11.875280307048588,45.40714846228687,17.0],[11.875260691246044,45.407169839508676,17.0]]]}},{"type":"Feature","id":"AC_PED:206","properties":{"FID":206},"geometry":{"type":"Polygon","coordinates":[[[11.875299931967172,45.40712726485708,17.0],[11.875297386586366,45.407102305502455,17.0],[11.8753038953575,45.40710214148456,17.0],[11.875301199322102,45.40707421551125,17.0],[11.875272607022723,45.407072325655214,17.0],[11.875244014724895,45.40707043579194,17.0],[11.875247235325086,45.40710365929025,17.0],[11.875253621038906,45.407103588388715,17.0],[11.875255696588955,45.40712432899243,17.0],[11.875280307048588,45.40714846228687,17.0],[11.875299931967172,45.40712726485708,17.0]]]}},{"type":"Feature","id":"AC_PED:208","properties":{"FID":208},"geometry":{"type":"Polygon","coordinates":[[[11.874718463805904,45.40708871865374,16.0],[11.874721546630687,45.40711168420402,17.0],[11.874721902293091,45.407113655520035,17.0],[11.874724752517132,45.40713455664111,17.0],[11.875260691246044,45.407169839508676,17.0],[11.875280307048588,45.40714846228687,17.0],[11.875255696588955,45.40712432899243,17.0],[11.875222746821908,45.40712218887786,17.0],[11.874831948767572,45.407096480894914,17.0],[11.874738610161968,45.40709037137829,17.0],[11.874718463805904,45.40708871865374,16.0]]]}},{"type":"Feature","id":"AC_PED:210","properties":{"FID":210},"geometry":{"type":"Polygon","coordinates":[[[11.87716712071048,45.40848970415567,17.0],[11.877169820875718,45.40850511822924,17.0],[11.877171907795857,45.40853864029119,17.0],[11.877173492477212,45.40856479398738,17.0],[11.87718262558797,45.40867158862165,17.0],[11.877194113773731,45.40880460753498,16.0],[11.877216343934835,45.40880701738851,16.0],[11.87724191523194,45.408809793048626,16.0],[11.877230832065628,45.408672173286526,17.0],[11.877215558855948,45.408484792219,17.0],[11.87716712071048,45.40848970415567,17.0]]]}},{"type":"Feature","id":"AC_PED:212","properties":{"FID":212},"geometry":{"type":"Polygon","coordinates":[[[11.877215558855948,45.408484792219,17.0],[11.877208818287613,45.408452737693764,17.0],[11.877182145566074,45.408305069572194,17.0],[11.87716465631002,45.40830542056789,17.0],[11.877140913405995,45.40830592925097,17.0],[11.877159402811342,45.408440931935125,17.0],[11.877162504995528,45.40846425697723,17.0],[11.87716712071048,45.40848970415567,17.0],[11.877215558855948,45.408484792219,17.0]]]}},{"type":"Feature","id":"AC_PED:214","properties":{"FID":214},"geometry":{"type":"Polygon","coordinates":[[[11.877589411814315,45.40803358273969,17.0],[11.877626355272255,45.40811177208087,17.0],[11.87763741668514,45.40825146265227,17.0],[11.877756781603852,45.40823909089669,17.0],[11.877801778161258,45.408234355523746,16.0],[11.877808391825841,45.4082337386544,16.0],[11.877854026499758,45.408228987166524,17.0],[11.877939821648285,45.408219892247786,16.0],[11.877923147861452,45.40814578239962,16.0],[11.877898366083295,45.40814847774518,17.0],[11.877883926938473,45.40808313275927,17.0],[11.877910358673223,45.40808021577581,16.0],[11.877902262551673,45.40803658385902,17.0],[11.877901760868857,45.40803425618589,17.0],[11.877985696180184,45.40802628829265,17.0],[11.877971247182556,45.4079557228363,17.0],[11.87797007506166,45.40795026163398,17.0],[11.877968533450677,45.407942559437025,17.0],[11.877967502663855,45.40793736470749,17.0],[11.877848247780411,45.407949373858685,17.0],[11.877838963172003,45.407950238121536,17.0],[11.877824600996286,45.40795177052386,17.0],[11.877813971918782,45.40795383885781,17.0],[11.877756172947558,45.40796564806964,18.0],[11.877746943166345,45.40796759109301,18.0],[11.877716911196943,45.40797509946759,18.0],[11.877719315421421,45.40799223123182,18.0],[11.877720702274836,45.4080019176117,18.0],[11.877724145147289,45.408014342526734,17.0],[11.877724313895488,45.40801514838388,17.0],[11.877724852125052,45.408018195236615,17.0],[11.877602374714792,45.40803217566892,17.0],[11.877589411814315,45.40803358273969,17.0]],[[11.877715443163103,45.40815489158932,16.0],[11.877704635068302,45.408110697968795,17.0],[11.877774230840775,45.40810219175681,16.0],[11.877778435547526,45.40811954814682,15.0],[11.877784601597636,45.408147836602076,15.0],[11.877738050759543,45.40815216110584,15.0],[11.877715443163103,45.40815489158932,16.0]],[[11.877817452854945,45.40801477958432,17.0],[11.877809904507373,45.40797689464921,18.0],[11.877848173302574,45.40797304904266,18.0],[11.877855849299658,45.40801093075569,17.0],[11.877817452854945,45.40801477958432,17.0]]]}},{"type":"Feature","id":"AC_PED:216","properties":{"FID":216},"geometry":{"type":"Polygon","coordinates":[[[11.87753569965775,45.40791963122633,17.0],[11.877551159926668,45.40795227594346,17.0],[11.877638513317594,45.407941161677016,17.0],[11.877789723685149,45.40792177587142,17.0],[11.877820448890494,45.4079178504958,17.0],[11.877825654079043,45.40791717913693,17.0],[11.877848380060517,45.407914265620484,17.0],[11.877849902415637,45.40791404719868,17.0],[11.877885705174364,45.40790945366446,17.0],[11.87793991751364,45.40790250551753,17.0],[11.878043898142648,45.40788917130413,17.0],[11.87806319651955,45.40788670425156,16.0],[11.87809113249421,45.40785053464532,16.0],[11.878074326550163,45.407846727966565,16.0],[11.878053984014647,45.40784625094377,16.0],[11.878055383970986,45.40785116632305,16.0],[11.8778448794549,45.407878078846856,17.0],[11.877848429043718,45.40790517311555,16.0],[11.877822152427157,45.40790862624778,17.0],[11.87781873504438,45.407881618656404,17.0],[11.87753569965775,45.40791963122633,17.0]]]}},{"type":"Feature","id":"AC_PED:218","properties":{"FID":218},"geometry":{"type":"Polygon","coordinates":[[[11.877579556281777,45.407502757124,17.0],[11.877534587968109,45.407397406318566,17.0],[11.87755264164789,45.407393080478414,17.0],[11.877500244229497,45.40728989729104,17.0],[11.877311147392314,45.40733067096436,18.0],[11.877315082051442,45.40734020308898,18.0],[11.877262133268395,45.407351889742856,18.0],[11.87735363861819,45.40753815858416,18.0],[11.877420010882197,45.407526583436756,18.0],[11.877485699310936,45.407514125370376,18.0],[11.877568818543478,45.40751022893,17.0],[11.87756430541378,45.407504401918565,17.0],[11.877579556281777,45.407502757124,17.0]],[[11.877460314781631,45.40742952362432,18.0],[11.877399266875248,45.40744528512973,18.0],[11.877380583980916,45.40740957121713,18.0],[11.87744175947842,45.40739380650403,18.0],[11.877460314781631,45.40742952362432,18.0]]]}},{"type":"Feature","id":"AC_PED:222","properties":{"FID":222},"geometry":{"type":"Polygon","coordinates":[[[11.877654296497205,45.40837237387846,17.0],[11.877657522561046,45.40840064647402,17.0],[11.878060316387918,45.408378065486815,16.0],[11.878058412078852,45.40835065968868,16.0],[11.87805700819879,45.408350695099735,16.0],[11.87784550143728,45.408360440503785,16.0],[11.877792719309308,45.40836285190531,16.0],[11.877654296497205,45.40837237387846,17.0]]]}},{"type":"Feature","id":"AC_PED:227","properties":{"FID":227},"geometry":{"type":"Polygon","coordinates":[[[11.877508860982864,45.40582508521137,15.0],[11.877500559623591,45.405812602786476,15.0],[11.877329699913236,45.40586011758517,14.0],[11.877316733221909,45.40586395506091,14.0],[11.877173128499983,45.40590466147003,13.0],[11.877116065757345,45.40592086241253,14.0],[11.87705051610082,45.405936017146935,15.0],[11.876871291781821,45.40598239198095,16.0],[11.87676779468235,45.40601272531629,16.0],[11.876738962417434,45.40602119332606,16.0],[11.876696028487046,45.406033797386144,16.0],[11.876702438767524,45.406051818314964,16.0],[11.876708849052337,45.40606983924325,16.0],[11.876745511868872,45.406062073941875,16.0],[11.876751327601141,45.406060847163225,16.0],[11.877070911573917,45.40596772738387,14.0],[11.877131351601617,45.40595009111501,14.0],[11.877346667456608,45.40588723356137,14.0],[11.877517157777298,45.40583747773818,15.0],[11.877508860982864,45.40582508521137,15.0]]]}},{"type":"Feature","id":"AC_PED:244","properties":{"FID":244},"geometry":{"type":"Polygon","coordinates":[[[11.876996257758838,45.40744338579041,18.0],[11.876957136348317,45.407360030423554,18.0],[11.876932058775619,45.407364443256306,18.0],[11.876906853575383,45.40736885930149,18.0],[11.876894064106466,45.407371162046196,18.0],[11.87689041327453,45.40737224423473,18.0],[11.876900685297416,45.40739835892555,18.0],[11.876911121496956,45.40742518957644,18.0],[11.876911986772063,45.407459822601,18.0],[11.876910886336928,45.407483433641495,18.0],[11.876905906666273,45.4075036320011,18.0],[11.87693511132241,45.40751756769221,18.0],[11.87695805245398,45.407523920223525,18.0],[11.876980865966761,45.40753027596806,18.0],[11.876999521090264,45.407482458977356,18.0],[11.876996257758838,45.40744338579041,18.0]]]}},{"type":"Feature","id":"AC_PED:246","properties":{"FID":246},"geometry":{"type":"Polygon","coordinates":[[[11.876094196954025,45.40837894460579,16.0],[11.876092950718148,45.408359443292646,16.0],[11.876091699916715,45.40833985208194,16.0],[11.876026096480668,45.40834897673625,16.0],[11.875897186803186,45.40836716803132,16.0],[11.875904540509028,45.40838363500705,16.0],[11.875965487687548,45.40839605077565,16.0],[11.876028698266074,45.408387616558386,16.0],[11.876094196954025,45.40837894460579,16.0]]]}},{"type":"Feature","id":"AC_PED:248","properties":{"FID":248},"geometry":{"type":"Polygon","coordinates":[[[11.875965487687548,45.40839605077565,16.0],[11.875904540509028,45.40838363500705,16.0],[11.875845648449147,45.40841419341345,16.0],[11.875905504265758,45.40840512371843,16.0],[11.875965487687548,45.40839605077565,16.0]]]}},{"type":"Feature","id":"AC_PED:258","properties":{"FID":258},"geometry":{"type":"Polygon","coordinates":[[[11.877819894605269,45.409151396620864,16.0],[11.877831403909044,45.409151556399706,16.0],[11.877847261679774,45.409151786526124,16.0],[11.877854541372999,45.409119018373715,16.0],[11.877819894605269,45.409151396620864,16.0]]]}},{"type":"Feature","id":"AC_PED:260","properties":{"FID":260},"geometry":{"type":"Polygon","coordinates":[[[11.877847261679774,45.409151786526124,16.0],[11.877849691167814,45.409151815262426,16.0],[11.877858898610848,45.40915194308319,16.0],[11.877861715550413,45.40915205205951,16.0],[11.877866059447694,45.40915203251023,16.0],[11.877928980021759,45.40915296585976,16.0],[11.877854541372999,45.409119018373715,16.0],[11.877847261679774,45.409151786526124,16.0]]]}},{"type":"Feature","id":"AC_PED:266","properties":{"FID":266},"geometry":{"type":"Polygon","coordinates":[[[11.877843471301585,45.40898922943909,16.0],[11.877798086061725,45.408988843915495,16.0],[11.877759861637944,45.40898854780809,16.0],[11.87774413610903,45.40898840434679,16.0],[11.877854541372999,45.409119018373715,16.0],[11.877843471301585,45.40898922943909,16.0]]]}},{"type":"Feature","id":"AC_PED:268","properties":{"FID":268},"geometry":{"type":"Polygon","coordinates":[[[11.877717348265213,45.4091351703362,16.0],[11.877716944438667,45.40914985256736,16.0],[11.877741754397617,45.40915021697769,16.0],[11.877798279897911,45.409151041651306,16.0],[11.877819894605269,45.409151396620864,16.0],[11.877854541372999,45.409119018373715,16.0],[11.877717348265213,45.4091351703362,16.0]]]}},{"type":"Feature","id":"AC_PED:270","properties":{"FID":270},"geometry":{"type":"Polygon","coordinates":[[[11.87774413610903,45.40898840434679,16.0],[11.877722020094724,45.40898824203131,16.0],[11.87772170213674,45.408997071280965,16.0],[11.87772063104239,45.40903382341761,16.0],[11.877717348265213,45.4091351703362,16.0],[11.877854541372999,45.409119018373715,16.0],[11.87774413610903,45.40898840434679,16.0]]]}},{"type":"Feature","id":"AC_PED:272","properties":{"FID":272},"geometry":{"type":"Polygon","coordinates":[[[11.877928980021759,45.40915296585976,16.0],[11.87803500238468,45.40915461225523,15.0],[11.878032651984872,45.4090279338631,15.0],[11.878032040877677,45.40899077409174,15.0],[11.877950222562838,45.40899013742891,15.0],[11.877843471301585,45.40898922943909,16.0],[11.877854541372999,45.409119018373715,16.0],[11.877928980021759,45.40915296585976,16.0]]]}}]}
